[{"OBJECT_NAME":"ONEWEB-0457","OBJECT_ID":"2022-012AB","EPOCH":"2025-09-08T06:07:55.265664","MEAN_MOTION":13.10371138,"ECCENTRICITY":0.00020217,"INCLINATION":87.874,"RA_OF_ASC_NODE":92.5049,"ARG_OF_PERICENTER":92.1956,"MEAN_ANOMALY":267.9403,"EPHEMERIS_TYPE":0,"CLASSIFICATION_TYPE":"U","NORAD_CAT_ID":51647,"ELEMENT_SET_NO":999,"REV_AT_EPOCH":17242,"BSTAR":0.0010489448,"MEAN_MOTION_DOT":3.79e-6,"MEAN_MOTION_DDOT":0},{"OBJECT_NAME":"ONEWEB-0458","OBJECT_ID":"2022-012AC","EPOCH":"2025-09-08T02:59:02.582016","MEAN_MOTION":13.10371683,"ECCENTRICITY":0.00018098,"INCLINATION":87.8738,"RA_OF_ASC_NODE":92.5028,"ARG_OF_PERICENTER":80.6508,"MEAN_ANOMALY":279.4824,"EPHEMERIS_TYPE":0,"CLASSIFICATION_TYPE":"U","NORAD_CAT_ID":51648,"ELEMENT_SET_NO":999,"REV_AT_EPOCH":17236,"BSTAR":-0.0015726891,"MEAN_MOTION_DOT":-5.36e-6,"MEAN_MOTION_DDOT":0},{"OBJECT_NAME":"ONEWEB-0461","OBJECT_ID":"2022-012AD","EPOCH":"2025-09-08T04:51:06.395904","MEAN_MOTION":13.17651252,"ECCENTRICITY":0.0001778,"INCLINATION":87.9041,"RA_OF_ASC_NODE":61.9365,"ARG_OF_PERICENTER":95.9151,"MEAN_ANOMALY":264.2183,"EPHEMERIS_TYPE":0,"CLASSIFICATION_TYPE":"U","NORAD_CAT_ID":51649,"ELEMENT_SET_NO":999,"REV_AT_EPOCH":17675,"BSTAR":0.00016612724,"MEAN_MOTION_DOT":7.7e-7,"MEAN_MOTION_DDOT":0},{"OBJECT_NAME":"ONEWEB-0463","OBJECT_ID":"2022-012AE","EPOCH":"2025-09-08T04:24:21.541824","MEAN_MOTION":13.17651331,"ECCENTRICITY":0.00017577,"INCLINATION":87.9027,"RA_OF_ASC_NODE":62.0004,"ARG_OF_PERICENTER":89.5719,"MEAN_ANOMALY":270.5614,"EPHEMERIS_TYPE":0,"CLASSIFICATION_TYPE":"U","NORAD_CAT_ID":51650,"ELEMENT_SET_NO":999,"REV_AT_EPOCH":17653,"BSTAR":0.00013036268,"MEAN_MOTION_DOT":6.4e-7,"MEAN_MOTION_DDOT":0},{"OBJECT_NAME":"ONEWEB-0464","OBJECT_ID":"2022-012AF","EPOCH":"2025-09-08T01:04:18.704352","MEAN_MOTION":13.10371011,"ECCENTRICITY":0.00013995,"INCLINATION":87.8743,"RA_OF_ASC_NODE":92.5569,"ARG_OF_PERICENTER":78.1454,"MEAN_ANOMALY":281.983,"EPHEMERIS_TYPE":0,"CLASSIFICATION_TYPE":"U","NORAD_CAT_ID":51651,"ELEMENT_SET_NO":999,"REV_AT_EPOCH":17237,"BSTAR":-0.0014038708,"MEAN_MOTION_DOT":-4.77e-6,"MEAN_MOTION_DDOT":0},{"OBJECT_NAME":"ONEWEB-0468","OBJECT_ID":"2022-012AG","EPOCH":"2025-09-08T03:03:48.960864","MEAN_MOTION":13.10372134,"ECCENTRICITY":0.00016873,"INCLINATION":87.8746,"RA_OF_ASC_NODE":92.5326,"ARG_OF_PERICENTER":82.8852,"MEAN_ANOMALY":277.2467,"EPHEMERIS_TYPE":0,"CLASSIFICATION_TYPE":"U","NORAD_CAT_ID":51652,"ELEMENT_SET_NO":999,"REV_AT_EPOCH":17236,"BSTAR":-0.0017805421,"MEAN_MOTION_DOT":-6.09e-6,"MEAN_MOTION_DDOT":0},{"OBJECT_NAME":"ONEWEB-0473","OBJECT_ID":"2022-012AH","EPOCH":"2025-09-08T02:42:18.861984","MEAN_MOTION":13.10369504,"ECCENTRICITY":0.00017167,"INCLINATION":87.8743,"RA_OF_ASC_NODE":92.5386,"ARG_OF_PERICENTER":81.0162,"MEAN_ANOMALY":279.116,"EPHEMERIS_TYPE":0,"CLASSIFICATION_TYPE":"U","NORAD_CAT_ID":51653,"ELEMENT_SET_NO":999,"REV_AT_EPOCH":17236,"BSTAR":-0.00047154291,"MEAN_MOTION_DOT":-1.52e-6,"MEAN_MOTION_DDOT":0},{"OBJECT_NAME":"ONEWEB-0474","OBJECT_ID":"2022-012AJ","EPOCH":"2025-09-08T06:10:17.785056","MEAN_MOTION":13.10369976,"ECCENTRICITY":0.00015995,"INCLINATION":87.8744,"RA_OF_ASC_NODE":92.4705,"ARG_OF_PERICENTER":77.0294,"MEAN_ANOMALY":283.1012,"EPHEMERIS_TYPE":0,"CLASSIFICATION_TYPE":"U","NORAD_CAT_ID":51654,"ELEMENT_SET_NO":999,"REV_AT_EPOCH":17237,"BSTAR":0.00072018394,"MEAN_MOTION_DOT":2.64e-6,"MEAN_MOTION_DDOT":0},{"OBJECT_NAME":"ONEWEB-0475","OBJECT_ID":"2022-012AK","EPOCH":"2025-09-08T04:41:23.513856","MEAN_MOTION":13.17649981,"ECCENTRICITY":0.00018483,"INCLINATION":87.9032,"RA_OF_ASC_NODE":61.9809,"ARG_OF_PERICENTER":65.4769,"MEAN_ANOMALY":294.6555,"EPHEMERIS_TYPE":0,"CLASSIFICATION_TYPE":"U","NORAD_CAT_ID":51655,"ELEMENT_SET_NO":999,"REV_AT_EPOCH":17655,"BSTAR":0.00014630771,"MEAN_MOTION_DOT":7.0e-7,"MEAN_MOTION_DDOT":0},{"OBJECT_NAME":"ONEWEB-0490","OBJECT_ID":"2022-138A","EPOCH":"2025-09-08T05:56:44.654784","MEAN_MOTION":13.19726634,"ECCENTRICITY":0.00015889,"INCLINATION":87.9284,"RA_OF_ASC_NODE":1.0092,"ARG_OF_PERICENTER":97.2125,"MEAN_ANOMALY":262.9188,"EPHEMERIS_TYPE":0,"CLASSIFICATION_TYPE":"U","NORAD_CAT_ID":54113,"ELEMENT_SET_NO":999,"REV_AT_EPOCH":13964,"BSTAR":0.00018340054,"MEAN_MOTION_DOT":8.6e-7,"MEAN_MOTION_DDOT":0},{"OBJECT_NAME":"ONEWEB-0492","OBJECT_ID":"2022-138B","EPOCH":"2025-09-08T06:33:08.322336","MEAN_MOTION":13.19725079,"ECCENTRICITY":0.00016616,"INCLINATION":87.9279,"RA_OF_ASC_NODE":1.0267,"ARG_OF_PERICENTER":104.1259,"MEAN_ANOMALY":256.0059,"EPHEMERIS_TYPE":0,"CLASSIFICATION_TYPE":"U","NORAD_CAT_ID":54114,"ELEMENT_SET_NO":999,"REV_AT_EPOCH":13965,"BSTAR":0.00021937516,"MEAN_MOTION_DOT":1.01e-6,"MEAN_MOTION_DDOT":0},{"OBJECT_NAME":"ONEWEB-0495","OBJECT_ID":"2022-138C","EPOCH":"2025-09-08T06:01:17.989824","MEAN_MOTION":13.19726463,"ECCENTRICITY":0.00011851,"INCLINATION":87.9271,"RA_OF_ASC_NODE":1.0399,"ARG_OF_PERICENTER":83.6109,"MEAN_ANOMALY":276.5159,"EPHEMERIS_TYPE":0,"CLASSIFICATION_TYPE":"U","NORAD_CAT_ID":54115,"ELEMENT_SET_NO":999,"REV_AT_EPOCH":13963,"BSTAR":0.00025512509,"MEAN_MOTION_DOT":1.15e-6,"MEAN_MOTION_DDOT":0},{"OBJECT_NAME":"ONEWEB-0497","OBJECT_ID":"2022-138D","EPOCH":"2025-09-08T06:19:30.069408","MEAN_MOTION":13.19726207,"ECCENTRICITY":0.00016977,"INCLINATION":87.9287,"RA_OF_ASC_NODE":1.0134,"ARG_OF_PERICENTER":98.5675,"MEAN_ANOMALY":261.565,"EPHEMERIS_TYPE":0,"CLASSIFICATION_TYPE":"U","NORAD_CAT_ID":54116,"ELEMENT_SET_NO":999,"REV_AT_EPOCH":13962,"BSTAR":0.00030420133,"MEAN_MOTION_DOT":1.35e-6,"MEAN_MOTION_DDOT":0},{"OBJECT_NAME":"ONEWEB-0499","OBJECT_ID":"2022-138E","EPOCH":"2025-09-08T05:54:28.057248","MEAN_MOTION":13.19724995,"ECCENTRICITY":0.00018809,"INCLINATION":87.9282,"RA_OF_ASC_NODE":1.0343,"ARG_OF_PERICENTER":87.8646,"MEAN_ANOMALY":272.2702,"EPHEMERIS_TYPE":0,"CLASSIFICATION_TYPE":"U","NORAD_CAT_ID":54117,"ELEMENT_SET_NO":999,"REV_AT_EPOCH":13963,"BSTAR":0.00027406354,"MEAN_MOTION_DOT":1.23e-6,"MEAN_MOTION_DDOT":0},{"OBJECT_NAME":"ONEWEB-0500","OBJECT_ID":"2022-138F","EPOCH":"2025-09-08T05:59:02.343552","MEAN_MOTION":13.19726673,"ECCENTRICITY":0.00017877,"INCLINATION":87.9286,"RA_OF_ASC_NODE":1.0198,"ARG_OF_PERICENTER":101.5117,"MEAN_ANOMALY":258.6217,"EPHEMERIS_TYPE":0,"CLASSIFICATION_TYPE":"U","NORAD_CAT_ID":54118,"ELEMENT_SET_NO":999,"REV_AT_EPOCH":13964,"BSTAR":0.00030589912,"MEAN_MOTION_DOT":1.35e-6,"MEAN_MOTION_DDOT":0},{"OBJECT_NAME":"ONEWEB-0501","OBJECT_ID":"2022-138G","EPOCH":"2025-09-08T06:42:13.403520","MEAN_MOTION":13.1972744,"ECCENTRICITY":0.00014876,"INCLINATION":87.9287,"RA_OF_ASC_NODE":1.0062,"ARG_OF_PERICENTER":89.3335,"MEAN_ANOMALY":270.7969,"EPHEMERIS_TYPE":0,"CLASSIFICATION_TYPE":"U","NORAD_CAT_ID":54119,"ELEMENT_SET_NO":999,"REV_AT_EPOCH":13962,"BSTAR":8.9459333e-5,"MEAN_MOTION_DOT":4.9e-7,"MEAN_MOTION_DDOT":0},{"OBJECT_NAME":"ONEWEB-0502","OBJECT_ID":"2022-138H","EPOCH":"2025-09-08T06:21:45.534240","MEAN_MOTION":13.19724518,"ECCENTRICITY":0.00017084,"INCLINATION":87.9286,"RA_OF_ASC_NODE":0.9923,"ARG_OF_PERICENTER":91.0088,"MEAN_ANOMALY":269.124,"EPHEMERIS_TYPE":0,"CLASSIFICATION_TYPE":"U","NORAD_CAT_ID":54120,"ELEMENT_SET_NO":999,"REV_AT_EPOCH":13964,"BSTAR":0.0004135656,"MEAN_MOTION_DOT":1.78e-6,"MEAN_MOTION_DDOT":0},{"OBJECT_NAME":"ONEWEB-0503","OBJECT_ID":"2022-138J","EPOCH":"2025-09-08T06:05:49.692768","MEAN_MOTION":13.19728844,"ECCENTRICITY":0.00020232,"INCLINATION":87.9288,"RA_OF_ASC_NODE":0.9979,"ARG_OF_PERICENTER":94.6352,"MEAN_ANOMALY":265.5012,"EPHEMERIS_TYPE":0,"CLASSIFICATION_TYPE":"U","NORAD_CAT_ID":54121,"ELEMENT_SET_NO":999,"REV_AT_EPOCH":13963,"BSTAR":-0.0020847388,"MEAN_MOTION_DOT":-8.22e-6,"MEAN_MOTION_DDOT":0},{"OBJECT_NAME":"ONEWEB-0504","OBJECT_ID":"2022-138K","EPOCH":"2025-09-08T05:47:38.664672","MEAN_MOTION":13.19725124,"ECCENTRICITY":0.00017458,"INCLINATION":87.9287,"RA_OF_ASC_NODE":1.0177,"ARG_OF_PERICENTER":89.4174,"MEAN_ANOMALY":270.7159,"EPHEMERIS_TYPE":0,"CLASSIFICATION_TYPE":"U","NORAD_CAT_ID":54122,"ELEMENT_SET_NO":999,"REV_AT_EPOCH":13964,"BSTAR":0.00026581413,"MEAN_MOTION_DOT":1.19e-6,"MEAN_MOTION_DDOT":0},{"OBJECT_NAME":"ONEWEB-0505","OBJECT_ID":"2022-138L","EPOCH":"2025-09-08T05:43:06.811392","MEAN_MOTION":13.19726661,"ECCENTRICITY":0.00014748,"INCLINATION":87.9285,"RA_OF_ASC_NODE":1.0069,"ARG_OF_PERICENTER":83.1559,"MEAN_ANOMALY":276.9742,"EPHEMERIS_TYPE":0,"CLASSIFICATION_TYPE":"U","NORAD_CAT_ID":54123,"ELEMENT_SET_NO":999,"REV_AT_EPOCH":13962,"BSTAR":0.00012406663,"MEAN_MOTION_DOT":6.3e-7,"MEAN_MOTION_DDOT":0},{"OBJECT_NAME":"ONEWEB-0506","OBJECT_ID":"2022-138M","EPOCH":"2025-09-08T06:55:52.920480","MEAN_MOTION":13.19724412,"ECCENTRICITY":0.0001704,"INCLINATION":87.9284,"RA_OF_ASC_NODE":0.9941,"ARG_OF_PERICENTER":94.171,"MEAN_ANOMALY":265.9617,"EPHEMERIS_TYPE":0,"CLASSIFICATION_TYPE":"U","NORAD_CAT_ID":54124,"ELEMENT_SET_NO":999,"REV_AT_EPOCH":13962,"BSTAR":-3.0991681e-5,"MEAN_MOTION_DOT":1.0e-8,"MEAN_MOTION_DDOT":0},{"OBJECT_NAME":"ONEWEB-0507","OBJECT_ID":"2022-138N","EPOCH":"2025-09-08T05:36:15.839424","MEAN_MOTION":13.19724456,"ECCENTRICITY":0.00015977,"INCLINATION":87.9276,"RA_OF_ASC_NODE":1.0557,"ARG_OF_PERICENTER":95.5631,"MEAN_ANOMALY":264.5684,"EPHEMERIS_TYPE":0,"CLASSIFICATION_TYPE":"U","NORAD_CAT_ID":54125,"ELEMENT_SET_NO":999,"REV_AT_EPOCH":13966,"BSTAR":0.00015862613,"MEAN_MOTION_DOT":7.6e-7,"MEAN_MOTION_DDOT":0},{"OBJECT_NAME":"ONEWEB-0508","OBJECT_ID":"2022-138P","EPOCH":"2025-09-08T05:31:43.301856","MEAN_MOTION":13.19724698,"ECCENTRICITY":0.00014211,"INCLINATION":87.928,"RA_OF_ASC_NODE":1.0413,"ARG_OF_PERICENTER":93.8098,"MEAN_ANOMALY":266.3198,"EPHEMERIS_TYPE":0,"CLASSIFICATION_TYPE":"U","NORAD_CAT_ID":54126,"ELEMENT_SET_NO":999,"REV_AT_EPOCH":13964,"BSTAR":-3.0182228e-5,"MEAN_MOTION_DOT":1.0e-8,"MEAN_MOTION_DDOT":0}]
